{
    "links": {
        "self": "http://www.neowsapp.com/rest/v1/neo/3838210?api_key=iIulBulltgU6a56xZRHN4H3l9WmuAYTsLGpBGhQ2"
    },
    "id": "3838210",
    "neo_reference_id": "3838210",
    "name": "(2019 CB3)",
    "designation": "2019 CB3",
    "nasa_jpl_url": "http://ssd.jpl.nasa.gov/sbdb.cgi?sstr=3838210",
    "absolute_magnitude_h": 26.5,
    "estimated_diameter": {
        "kilometers": {
            "estimated_diameter_min": 0.0133215567,
            "estimated_diameter_max": 0.0297879063
        },
        "meters": {
            "estimated_diameter_min": 13.3215566698,
            "estimated_diameter_max": 29.7879062798
        },
        "miles": {
            "estimated_diameter_min": 0.008277629,
            "estimated_diameter_max": 0.0185093411
        },
        "feet": {
            "estimated_diameter_min": 43.7058959846,
            "estimated_diameter_max": 97.7293544391
        }
    },
    "is_potentially_hazardous_asteroid": false,
    "close_approach_data": [
        {
            "close_approach_date": "2019-02-18",
            "close_approach_date_full": "2019-Feb-18 04:41",
            "epoch_date_close_approach": 1550464860000,
            "relative_velocity": {
                "kilometers_per_second": "8.5461545171",
                "kilometers_per_hour": "30766.1562615677",
                "miles_per_hour": "19116.8930393058"
            },
            "miss_distance": {
                "astronomical": "0.0537257284",
                "lunar": "20.8993083476",
                "kilometers": "8037254.532838508",
                "miles": "4994118.3863590904"
            },
            "orbiting_body": "Earth"
        }
    ],
    "orbital_data": {
        "orbit_id": "2",
        "orbit_determination_date": "2019-02-14 07:18:26",
        "first_observation_date": "2019-02-08",
        "last_observation_date": "2019-02-12",
        "data_arc_in_days": 4,
        "observations_used": 26,
        "orbit_uncertainty": "8",
        "minimum_orbit_intersection": ".0531831",
        "jupiter_tisserand_invariant": "3.778",
        "epoch_osculation": "2458523.5",
        "eccentricity": ".4672545963990228",
        "semi_major_axis": "1.910161539958299",
        "inclination": "10.48723614782928",
        "ascending_node_longitude": "319.2343798774734",
        "orbital_period": "964.2809158135462",
        "perihelion_distance": "1.017629780548148",
        "perihelion_argument": "206.4687948846122",
        "aphelion_distance": "2.802693299368449",
        "perihelion_time": "2458547.458605701825",
        "mean_anomaly": "351.0554093613061",
        "mean_motion": ".3733351911214323",
        "equinox": "J2000",
        "orbit_class": {
            "orbit_class_type": "AMO",
            "orbit_class_description": "Near-Earth asteroid orbits similar to that of 1221 Amor",
            "orbit_class_range": "1.017 AU < q (perihelion) < 1.3 AU"
        }
    },
    "is_sentry_object": false
}